H1 CPF 01  gfz 2022 09 24 00  7671 terrasarx 
H2 0702601  6201 31698    2022 09 24 00 59 42 2022 09 29 00 00 42   120 1 1  0 0 0
H9
10 0 59850  38862.000000  0   -2117891.177   6538260.810    475260.822
10 0 59850  38982.000000  0   -1910765.560   6473887.535   1371494.576
10 0 59850  39102.000000  0   -1672389.759   6292436.676   2243578.179
10 0 59850  39222.000000  0   -1408953.417   5996577.679   3076154.041
10 0 59850  39342.000000  0   -1127023.416   5591109.546   3854566.197
10 0 59850  39462.000000  0    -833390.710   5082877.565   4565123.196
10 0 59850  39582.000000  0    -534914.191   4480648.549   5195342.978
10 0 59850  39702.000000  0    -238365.187   3794948.483   5734169.502
10 0 59850  39822.000000  0      49720.435   3037871.064   6172163.311
10 0 59850  39942.000000  0     323181.798   2222855.936   6501661.828
10 0 59850  40062.000000  0     576361.183   1364445.312   6716907.114
10 0 59850  40182.000000  0     804218.481    478020.992   6814140.737
10 0 59850  40302.000000  0    1002429.605   -420471.286   6791664.354
10 0 59850  40422.000000  0    1167467.677  -1314807.576   6649868.721
10 0 59850  40542.000000  0    1296665.801  -2188778.363   6391227.685
10 0 59850  40662.000000  0    1388260.324  -3026482.410   6020258.373
10 0 59850  40782.000000  0    1441413.660  -3812618.269   5543446.703
10 0 59850  40902.000000  0    1456216.370  -4532766.328   4969138.407
10 0 59850  41022.000000  0    1433669.790  -5173657.192   4307399.426
10 0 59850  41142.000000  0    1375648.501  -5723424.876   3569845.746
10 0 59850  41262.000000  0    1284843.150  -6171836.683   2769440.847
10 0 59850  41382.000000  0    1164684.440  -6510492.099   1920267.187
10 0 59850  41502.000000  0    1019249.949  -6732989.489   1037276.416
10 0 59850  41622.000000  0     853156.599  -6835055.032    136020.676
10 0 59850  41742.000000  0     671440.280  -6814630.393   -767630.410
10 0 59850  41862.000000  0     479425.397  -6671912.725  -1657780.174
10 0 59850  41982.000000  0     282590.366  -6409348.020  -2518792.603
10 0 59850  42102.000000  0      86431.404  -6031581.145  -3335572.501
10 0 59850  42222.000000  0    -103672.471  -5545363.362  -4093833.808
10 0 59850  42342.000000  0    -282589.869  -4959418.498  -4780349.746
10 0 59850  42462.000000  0    -445559.372  -4284273.437  -5383178.696
10 0 59850  42582.000000  0    -588301.208  -3532058.145  -5891864.411
10 0 59850  42702.000000  0    -707115.624  -2716279.164  -6297607.406
10 0 59850  42822.000000  0    -798966.535  -1851571.948  -6593405.970
10 0 59850  42942.000000  0    -861549.095   -953437.285  -6774165.562
10 0 59850  43062.000000  0    -893340.379    -37966.223  -6836777.794
10 0 59850  43182.000000  0    -893631.801    878443.241  -6780167.211
10 0 59850  43302.000000  0    -862543.466   1779372.122  -6605307.211
10 0 59850  43422.000000  0    -801020.482   2648667.075  -6315205.057
10 0 59850  43542.000000  0    -710810.714   3470723.965  -5914857.036
10 0 59850  43662.000000  0    -594424.449   4230765.948  -5411171.786
10 0 59850  43782.000000  0    -455076.172   4915109.459  -4812861.886
10 0 59850  43902.000000  0    -296610.130   5511415.687  -4130304.743
10 0 59850  44022.000000  0    -123410.318   6008921.614  -3375372.136
10 0 59850  44142.000000  0      59703.674   6398644.797  -2561231.157
10 0 59850  44262.000000  0     247592.720   6673558.080  -1702119.174
10 0 59850  44382.000000  0     434923.554   6828729.230   -813095.378
10 0 59850  44502.000000  0     616300.890   6861420.660     90226.494
10 0 59850  44622.000000  0     786402.978   6771146.100    991958.865
10 0 59850  44742.000000  0     940116.670   6559681.394   1876228.207
10 0 59850  44862.000000  0    1072667.156   6231029.651   2727462.898
10 0 59850  44982.000000  0    1179740.451   5791343.200   3530674.703
10 0 59850  45102.000000  0    1257596.014   5248802.202   4271729.530
10 0 59850  45222.000000  0    1303167.820   4613454.971   4937600.912
10 0 59850  45342.000000  0    1314146.351   3897018.798   5516601.770
10 0 59850  45462.000000  0    1289044.966   3112653.606   5998583.555
10 0 59850  45582.000000  0    1227247.534   2274713.654   6375109.775
10 0 59850  45702.000000  0    1129035.955   1398478.951   6639598.319
10 0 59850  45822.000000  0     995598.012    499872.505   6787430.293
10 0 59850  45942.000000  0     829015.105   -404829.264   6816024.534
10 0 59850  46062.000000  0     632229.980  -1299290.084   6724881.301
10 0 59850  46182.000000  0     408994.616  -2167408.947   6515590.968
10 0 59850  46302.000000  0     163798.940  -2993610.045   6191808.432
10 0 59850  46422.000000  0     -98217.923  -3763124.151   5759191.532
10 0 59850  46542.000000  0    -371371.698  -4462253.152   5225305.982
10 0 59850  46662.000000  0    -649551.094  -5078617.286   4599501.177
10 0 59850  46782.000000  0    -926349.479  -5601383.827   3892754.282
10 0 59850  46902.000000  0   -1195207.009  -6021467.973   3117480.079
10 0 59850  47022.000000  0   -1449559.188  -6331699.761   2287313.260
10 0 59850  47142.000000  0   -1682988.692  -6526956.046   1416867.558
10 0 59850  47262.000000  0   -1889378.276  -6604252.771    521472.927
10 0 59850  47382.000000  0   -2063057.774  -6562793.141   -383102.700
10 0 59850  47502.000000  0   -2198942.691  -6403971.938  -1280939.880
10 0 59850  47622.000000  0   -2292661.331  -6131335.843  -2156256.260
10 0 59850  47742.000000  0   -2340667.378  -5750501.039  -2993691.496
10 0 59850  47862.000000  0   -2340334.753  -5269029.606  -3778582.427
10 0 59850  47982.000000  0   -2290032.170  -4696268.355  -4497221.375
10 0 59850  48102.000000  0   -2189176.218  -4043156.299  -5137092.330
10 0 59850  48222.000000  0   -2038262.566  -3322006.459  -5687082.253
10 0 59850  48342.000000  0   -1838874.971  -2546266.826  -6137665.498
10 0 59850  48462.000000  0   -1593671.478  -1730264.633  -6481058.627
10 0 59850  48582.000000  0   -1306348.728   -888940.170  -6711342.970
10 0 59850  48702.000000  0    -981586.399    -37575.504  -6824555.784
10 0 59850  48822.000000  0    -624971.691    808477.766  -6818750.454
10 0 59850  48942.000000  0    -242904.486   1634068.159  -6694026.100
10 0 59850  49062.000000  0     157513.798   2424508.402  -6452525.960
10 0 59850  49182.000000  0     568608.031   3165831.445  -6098406.640
10 0 59850  49302.000000  0     982273.251   3845035.374  -5637774.273
10 0 59850  49422.000000  0    1390129.886   4450310.994  -5078588.642
10 0 59850  49542.000000  0    1783689.443   4971251.075  -4430537.872
10 0 59850  49662.000000  0    2154528.021   5399037.098  -3704880.859
10 0 59850  49782.000000  0    2494463.377   5726597.449  -2914260.068
10 0 59850  49902.000000  0    2795732.590   5948735.299  -2072487.647
10 0 59850  50022.000000  0    3051166.384   6062222.013  -1194306.257
10 0 59850  50142.000000  0    3254354.871   6065852.387   -295128.483
10 0 59850  50262.000000  0    3399799.921   5960459.041    609239.322
10 0 59850  50382.000000  0    3483050.759   5748885.595   1502881.854
10 0 59850  50502.000000  0    3500819.860   5435920.286   2370062.738
10 0 59850  50622.000000  0    3451074.714   5028190.952   3195510.377
10 0 59850  50742.000000  0    3333104.133   4534021.776   3964694.789
10 0 59850  50862.000000  0    3147557.944   3963258.483   4664087.670
10 0 59850  50982.000000  0    2896455.474   3327065.465   5281404.891
10 0 59850  51102.000000  0    2583165.266   2637698.695   5805819.430
10 0 59850  51222.000000  0    2212360.533   1908264.334   6228146.270
10 0 59850  51342.000000  0    1789947.994   1152464.889   6540999.002
10 0 59850  51462.000000  0    1322970.726    384338.317   6738912.204
10 0 59850  51582.000000  0     819488.826   -382002.182   6818430.419
10 0 59850  51702.000000  0     288439.898  -1132626.712   6778166.255
10 0 59850  51822.000000  0    -260519.887  -1854042.174   6618823.150
10 0 59850  51942.000000  0    -817191.419  -2533434.687   6343183.324
10 0 59850  52062.000000  0   -1371021.125  -3158897.489   5956060.677
10 0 59850  52182.000000  0   -1911298.118  -3719640.235   5464221.505
10 0 59850  52302.000000  0   -2427360.874  -4206178.727   4876274.448
10 0 59850  52422.000000  0   -2908810.122  -4610501.822   4202527.016
10 0 59850  52542.000000  0   -3345721.731  -4926210.257   3454808.719
10 0 59850  52662.000000  0   -3728853.306  -5148624.063   2646264.212
10 0 59850  52782.000000  0   -4049840.371  -5274856.510   1791121.555
10 0 59850  52902.000000  0   -4301379.386  -5303852.987    904438.285
10 0 59850  53022.000000  0   -4477391.753  -5236392.468      1829.998
10 0 59850  53142.000000  0   -4573164.764  -5075052.069   -900812.574
10 0 59850  53262.000000  0   -4585465.455  -4824134.979  -1787612.981
10 0 59850  53382.000000  0   -4512623.526  -4489562.643  -2642997.430
10 0 59850  53502.000000  0   -4354581.865  -4078734.932  -3451974.452
10 0 59850  53622.000000  0   -4112914.124  -3600363.486  -4200400.071
10 0 59850  53742.000000  0   -3790809.940  -3064282.892  -4875223.971
10 0 59850  53862.000000  0   -3393028.511  -2481243.826  -5464712.570
10 0 59850  53982.000000  0   -2925822.133  -1862693.887  -5958644.816
10 0 59850  54102.000000  0   -2396832.618  -1220551.101  -6348479.559
10 0 59850  54222.000000  0   -1814961.550   -566974.095  -6627492.410
10 0 59850  54342.000000  0   -1190217.854     85865.877  -6790879.566
10 0 59850  54462.000000  0    -533547.350    726006.351  -6835830.402
10 0 59850  54582.000000  0     143355.243   1341907.225  -6761570.884
10 0 59850  54702.000000  0     828248.614   1922652.958  -6569375.504
10 0 59850  54822.000000  0    1508561.195   2458142.158  -6262550.164
10 0 59850  54942.000000  0    2171617.482   2939261.364  -5846381.106
10 0 59850  55062.000000  0    2804870.570   3358040.301  -5328052.623
10 0 59850  55182.000000  0    3396136.990   3707785.280  -4716533.907
10 0 59850  55302.000000  0    3933831.741   3983191.066  -4022435.851
99
